{
  "type": "FeatureCollection",
  "features": [
    {
      "type": "Feature",
      "properties": {
        "norad_id": 66532,
        "name": "STARLINK-35914",
        "group": "last-30-days",
        "lat": 9.615775657863999,
        "lon": -135.77672921095288,
        "alt_km": 413.2691263497509,
        "timestamp": "2025-12-12T14:39:16.771222+00:00",
        "meta_object_name": "STARLINK-35914",
        "meta_object_id": "2025-265S",
        "meta_epoch": "2025-12-12T06:00:00.999648",
        "meta_mean_motion": 15.50542399,
        "meta_eccentricity": 0.00015673,
        "meta_inclination": 43.0001,
        "meta_ra_of_asc_node": 56.8082,
        "meta_arg_of_pericenter": 243.5519,
        "meta_mean_anomaly": 66.9129,
        "meta_ephemeris_type": 0,
        "meta_classification_type": "U",
        "meta_norad_cat_id": 66532,
        "meta_element_set_no": 999,
        "meta_rev_at_epoch": 491,
        "meta_bstar": 0.001015365,
        "meta_mean_motion_dot": 0.00059602,
        "meta_mean_motion_ddot": 0,
        "tle_line1": "1 66532U 25265S   25346.25001157  .00059602  00000+0  10154-2 0  9997",
        "tle_line2": "2 66532  43.0001  56.8082 0001567 243.5519  66.9129 15.50542399  4919"
      },
      "geometry": {
        "type": "Point",
        "coordinates": [
          -135.77672921095288,
          9.615775657863999
        ]
      }
    },
    {
      "type": "Feature",
      "properties": {
        "norad_id": 66533,
        "name": "STARLINK-35707",
        "group": "last-30-days",
        "lat": 8.339212838722778,
        "lon": -134.35622935095566,
        "alt_km": 413.8183825084716,
        "timestamp": "2025-12-12T14:39:16.771231+00:00",
        "meta_object_name": "STARLINK-35707",
        "meta_object_id": "2025-265T",
        "meta_epoch": "2025-12-12T06:00:00.999648",
        "meta_mean_motion": 15.5050599,
        "meta_eccentricity": 0.00015442,
        "meta_inclination": 43.0003,
        "meta_ra_of_asc_node": 56.8037,
        "meta_arg_of_pericenter": 262.7653,
        "meta_mean_anomaly": 49.633,
        "meta_ephemeris_type": 0,
        "meta_classification_type": "U",
        "meta_norad_cat_id": 66533,
        "meta_element_set_no": 999,
        "meta_rev_at_epoch": 491,
        "meta_bstar": 0.0014912897,
        "meta_mean_motion_dot": 0.00087904,
        "meta_mean_motion_ddot": 0,
        "tle_line1": "1 66533U 25265T   25346.25001157  .00087904  00000+0  14913-2 0  9991",
        "tle_line2": "2 66533  43.0003  56.8037 0001544 262.7653  49.6330 15.50505990  4917"
      },
      "geometry": {
        "type": "Point",
        "coordinates": [
          -134.35622935095566,
          8.339212838722778
        ]
      }
    },
    {
      "type": "Feature",
      "properties": {
        "norad_id": 66534,
        "name": "STARLINK-35976",
        "group": "last-30-days",
        "lat": 7.036555868889793,
        "lon": -132.92135524138362,
        "alt_km": 413.9132940032323,
        "timestamp": "2025-12-12T14:39:16.771240+00:00",
        "meta_object_name": "STARLINK-35976",
        "meta_object_id": "2025-265U",
        "meta_epoch": "2025-12-12T06:00:00.999648",
        "meta_mean_motion": 15.50544632,
        "meta_eccentricity": 0.0001344,
        "meta_inclination": 43.0005,
        "meta_ra_of_asc_node": 56.7999,
        "meta_arg_of_pericenter": 259.2936,
        "meta_mean_anomaly": 55.0096,
        "meta_ephemeris_type": 0,
        "meta_classification_type": "U",
        "meta_norad_cat_id": 66534,
        "meta_element_set_no": 999,
        "meta_rev_at_epoch": 491,
        "meta_bstar": 0.00051277664,
        "meta_mean_motion_dot": 0.00029818,
        "meta_mean_motion_ddot": 0,
        "tle_line1": "1 66534U 25265U   25346.25001157  .00029818  00000+0  51278-3 0  9998",
        "tle_line2": "2 66534  43.0005  56.7999 0001344 259.2936  55.0096 15.50544632  4915"
      },
      "geometry": {
        "type": "Point",
        "coordinates": [
          -132.92135524138362,
          7.036555868889793
        ]
      }
    },
    {
      "type": "Feature",
      "properties": {
        "norad_id": 66535,
        "name": "STARLINK-35514",
        "group": "last-30-days",
        "lat": 5.7354839192328075,
        "lon": -131.50224261158255,
        "alt_km": 414.1553980903509,
        "timestamp": "2025-12-12T14:39:16.771249+00:00",
        "meta_object_name": "STARLINK-35514",
        "meta_object_id": "2025-265V",
        "meta_epoch": "2025-12-12T06:00:00.999648",
        "meta_mean_motion": 15.505499,
        "meta_eccentricity": 0.00016222,
        "meta_inclination": 43.0006,
        "meta_ra_of_asc_node": 56.7949,
        "meta_arg_of_pericenter": 264.7222,
        "meta_mean_anomaly": 51.4987,
        "meta_ephemeris_type": 0,
        "meta_classification_type": "U",
        "meta_norad_cat_id": 66535,
        "meta_element_set_no": 999,
        "meta_rev_at_epoch": 491,
        "meta_bstar": 0.00052419619,
        "meta_mean_motion_dot": 0.00030498,
        "meta_mean_motion_ddot": 0,
        "tle_line1": "1 66535U 25265V   25346.25001157  .00030498  00000+0  52420-3 0  9995",
        "tle_line2": "2 66535  43.0006  56.7949 0001622 264.7222  51.4987 15.50549900  4912"
      },
      "geometry": {
        "type": "Point",
        "coordinates": [
          -131.50224261158255,
          5.7354839192328075
        ]
      }
    },
    {
      "type": "Feature",
      "properties": {
        "norad_id": 66536,
        "name": "STARLINK-35640",
        "group": "last-30-days",
        "lat": 4.435444621349225,
        "lon": -130.0942751992717,
        "alt_km": 414.27250089286736,
        "timestamp": "2025-12-12T14:39:16.771259+00:00",
        "meta_object_name": "STARLINK-35640",
        "meta_object_id": "2025-265W",
        "meta_epoch": "2025-12-12T06:00:00.999648",
        "meta_mean_motion": 15.50545984,
        "meta_eccentricity": 0.00011599,
        "meta_inclination": 43.0004,
        "meta_ra_of_asc_node": 56.7902,
        "meta_arg_of_pericenter": 263.3369,
        "meta_mean_anomaly": 54.7989,
        "meta_ephemeris_type": 0,
        "meta_classification_type": "U",
        "meta_norad_cat_id": 66536,
        "meta_element_set_no": 999,
        "meta_rev_at_epoch": 489,
        "meta_bstar": 0.00052711307,
        "meta_mean_motion_dot": 0.00030666,
        "meta_mean_motion_ddot": 0,
        "tle_line1": "1 66536U 25265W   25346.25001157  .00030666  00000+0  52711-3 0  9996",
        "tle_line2": "2 66536  43.0004  56.7902 0001159 263.3369  54.7989 15.50545984  4895"
      },
      "geometry": {
        "type": "Point",
        "coordinates": [
          -130.0942751992717,
          4.435444621349225
        ]
      }
    },
    {
      "type": "Feature",
      "properties": {
        "norad_id": 66537,
        "name": "STARLINK-35582",
        "group": "last-30-days",
        "lat": 3.0212568875718606,
        "lon": -128.57159555177444,
        "alt_km": 414.1129270784986,
        "timestamp": "2025-12-12T14:39:16.771270+00:00",
        "meta_object_name": "STARLINK-35582",
        "meta_object_id": "2025-265X",
        "meta_epoch": "2025-12-12T06:00:00.999648",
        "meta_mean_motion": 15.50731762,
        "meta_eccentricity": 0.0001351,
        "meta_inclination": 43.0006,
        "meta_ra_of_asc_node": 56.7854,
        "meta_arg_of_pericenter": 261.1373,
        "meta_mean_anomaly": 58.8932,
        "meta_ephemeris_type": 0,
        "meta_classification_type": "U",
        "meta_norad_cat_id": 66537,
        "meta_element_set_no": 999,
        "meta_rev_at_epoch": 491,
        "meta_bstar": -0.0014773012,
        "meta_mean_motion_dot": -0.00086525,
        "meta_mean_motion_ddot": 0,
        "tle_line1": "1 66537U 25265X   25346.25001157 -.00086525  00000+0 -14773-2 0  9999",
        "tle_line2": "2 66537  43.0006  56.7854 0001351 261.1373  58.8932 15.50731762  4916"
      },
      "geometry": {
        "type": "Point",
        "coordinates": [
          -128.57159555177444,
          3.0212568875718606
        ]
      }
    },
    {
      "type": "Feature",
      "properties": {
        "norad_id": 66538,
        "name": "STARLINK-35577",
        "group": "last-30-days",
        "lat": 1.8866741980767345,
        "lon": -127.35524205327455,
        "alt_km": 414.55514635675445,
        "timestamp": "2025-12-12T14:39:16.771279+00:00",
        "meta_object_name": "STARLINK-35577",
        "meta_object_id": "2025-265Y",
        "meta_epoch": "2025-12-12T06:00:00.999648",
        "meta_mean_motion": 15.50496154,
        "meta_eccentricity": 0.0001445,
        "meta_inclination": 43.0005,
        "meta_ra_of_asc_node": 56.7801,
        "meta_arg_of_pericenter": 262.7669,
        "meta_mean_anomaly": 59.1499,
        "meta_ephemeris_type": 0,
        "meta_classification_type": "U",
        "meta_norad_cat_id": 66538,
        "meta_element_set_no": 999,
        "meta_rev_at_epoch": 491,
        "meta_bstar": 0.0016883829,
        "meta_mean_motion_dot": 0.00099683,
        "meta_mean_motion_ddot": 0,
        "tle_line1": "1 66538U 25265Y   25346.25001157  .00099683  00000+0  16884-2 0  9992",
        "tle_line2": "2 66538  43.0005  56.7801 0001445 262.7669  59.1499 15.50496154  4912"
      },
      "geometry": {
        "type": "Point",
        "coordinates": [
          -127.35524205327455,
          1.8866741980767345
        ]
      }
    }
  ]
}